start=new Date('2022-12-21T00:00:00.000Z').valueOf();
sats=[{"SITE":"AFETR","ARG_OF_PERICENTER":"33.2462","PERIOD":"95.437","TLE_LINE1":"1 53253U 22086M   22354.59969053  .00002719  00000-0  18880-3 0  9995","RCS_SIZE":"MEDIUM","COUNTRY_CODE":"US","REV_AT_EPOCH":"2348","OBJECT_ID":"2022-086M","SEMIMAJOR_AXIS":"6917.833","MEAN_ELEMENT_THEORY":"SGP4","OBJECT_TYPE":"PAYLOAD","OBJECT_NAME":"STARLINK-4133","ECCENTRICITY":"0.00025420","ELEMENT_SET_NO":"999","CLASSIFICATION_TYPE":"U","APOAPSIS":"541.457","INCLINATION":"53.2179","PERIAPSIS":"537.940","TLE_LINE2":"2 53253  53.2179  69.3080 0002542  33.2462 326.8690 15.08855395 23486","MEAN_MOTION_DDOT":"0.0000000000000","CENTER_NAME":"EARTH","MEAN_ANOMALY":"326.8690","MEAN_MOTION_DOT":"0.00002719","EPOCH":"2022-12-20T14:23:33.261792","BSTAR":"0.00018880000000","EPHEMERIS_TYPE":"0","RA_OF_ASC_NODE":"69.3080","DECAY_DATE":null,"GP_ID":"221043190","NORAD_CAT_ID":"53253","LAUNCH_DATE":"2022-07-24","FILE":"3714090","TIME_SYSTEM":"UTC","REF_FRAME":"TEME","MEAN_MOTION":"15.08855395"},{"GP_ID":"221043552","NORAD_CAT_ID":"53254","LAUNCH_DATE":"2022-07-24","FILE":"3714090","TIME_SYSTEM":"UTC","REF_FRAME":"TEME","MEAN_MOTION":"15.08848139","TLE_LINE2":"2 53254  53.2177  68.6869 0002088  38.5937 321.5204 15.08848139 23506","CENTER_NAME":"EARTH","MEAN_MOTION_DDOT":"0.0000000000000","MEAN_ANOMALY":"321.5204","EPHEMERIS_TYPE":"0","EPOCH":"2022-12-20T17:44:55.385088","MEAN_MOTION_DOT":"0.00002313","BSTAR":"0.00016332000000","RA_OF_ASC_NODE":"68.6869","DECAY_DATE":null,"OBJECT_TYPE":"PAYLOAD","ECCENTRICITY":"0.00020880","ELEMENT_SET_NO":"999","OBJECT_NAME":"STARLINK-4134","CLASSIFICATION_TYPE":"U","INCLINATION":"53.2177","APOAPSIS":"541.165","PERIAPSIS":"538.276","SITE":"AFETR","ARG_OF_PERICENTER":"38.5937","TLE_LINE1":"1 53254U 22086N   22354.73952992  .00002313  00000-0  16332-3 0  9996","PERIOD":"95.437","COUNTRY_CODE":"US","RCS_SIZE":"LARGE","OBJECT_ID":"2022-086N","REV_AT_EPOCH":"2350","SEMIMAJOR_AXIS":"6917.856","MEAN_ELEMENT_THEORY":"SGP4"},{"TLE_LINE2":"2 53255  53.2175  69.6401 0002253  32.4115 327.7015 15.08842518 23472","MEAN_MOTION_DDOT":"0.0000000000000","CENTER_NAME":"EARTH","MEAN_ANOMALY":"327.7015","EPOCH":"2022-12-20T12:37:35.657760","MEAN_MOTION_DOT":"0.00002549","BSTAR":"0.00017821000000","EPHEMERIS_TYPE":"0","RA_OF_ASC_NODE":"69.6401","DECAY_DATE":null,"GP_ID":"221043197","NORAD_CAT_ID":"53255","LAUNCH_DATE":"2022-07-24","FILE":"3714090","TIME_SYSTEM":"UTC","REF_FRAME":"TEME","MEAN_MOTION":"15.08842518","ARG_OF_PERICENTER":"32.4115","SITE":"AFETR","PERIOD":"95.437","TLE_LINE1":"1 53255U 22086P   22354.52610715  .00002549  00000-0  17821-3 0  9993","RCS_SIZE":"LARGE","COUNTRY_CODE":"US","OBJECT_ID":"2022-086P","REV_AT_EPOCH":"2347","SEMIMAJOR_AXIS":"6917.873","MEAN_ELEMENT_THEORY":"SGP4","OBJECT_TYPE":"PAYLOAD","OBJECT_NAME":"STARLINK-4142","ELEMENT_SET_NO":"999","ECCENTRICITY":"0.00022530","CLASSIFICATION_TYPE":"U","APOAPSIS":"541.296","INCLINATION":"53.2175","PERIAPSIS":"538.179"},{"TIME_SYSTEM":"UTC","FILE":"3714090","GP_ID":"221043542","NORAD_CAT_ID":"53256","LAUNCH_DATE":"2022-07-24","MEAN_MOTION":"15.08839614","REF_FRAME":"TEME","MEAN_ANOMALY":"336.7732","BSTAR":"0.00019854000000","MEAN_MOTION_DOT":"0.00002873","EPOCH":"2022-12-20T17:29:02.198688","EPHEMERIS_TYPE":"0","TLE_LINE2":"2 53256  53.2174  68.7426 0002799  23.3387 336.7732 15.08839614 23507","MEAN_MOTION_DDOT":"0.0000000000000","CENTER_NAME":"EARTH","RA_OF_ASC_NODE":"68.7426","DECAY_DATE":null,"CLASSIFICATION_TYPE":"U","OBJECT_TYPE":"PAYLOAD","OBJECT_NAME":"STARLINK-4147","ECCENTRICITY":"0.00027990","ELEMENT_SET_NO":"999","APOAPSIS":"541.683","INCLINATION":"53.2174","PERIAPSIS":"537.810","PERIOD":"95.438","TLE_LINE1":"1 53256U 22086Q   22354.72849767  .00002873  00000-0  19854-3 0  9995","RCS_SIZE":"LARGE","COUNTRY_CODE":"US","ARG_OF_PERICENTER":"23.3387","SITE":"AFETR","MEAN_ELEMENT_THEORY":"SGP4","OBJECT_ID":"2022-086Q","REV_AT_EPOCH":"2350","SEMIMAJOR_AXIS":"6917.882"},{"OBJECT_TYPE":"PAYLOAD","ELEMENT_SET_NO":"999","ECCENTRICITY":"0.00019240","OBJECT_NAME":"STARLINK-4144","CLASSIFICATION_TYPE":"U","INCLINATION":"53.2176","APOAPSIS":"541.045","PERIAPSIS":"538.383","ARG_OF_PERICENTER":"37.9999","SITE":"AFETR","TLE_LINE1":"1 53257U 22086R   22354.51505253  .00005398  00000-0  35690-3 0  9993","PERIOD":"95.437","COUNTRY_CODE":"US","RCS_SIZE":"LARGE","REV_AT_EPOCH":"2365","OBJECT_ID":"2022-086R","SEMIMAJOR_AXIS":"6917.849","MEAN_ELEMENT_THEORY":"SGP4","GP_ID":"221030686","NORAD_CAT_ID":"53257","LAUNCH_DATE":"2022-07-24","TIME_SYSTEM":"UTC","FILE":"3713130","REF_FRAME":"TEME","MEAN_MOTION":"15.08850418","TLE_LINE2":"2 53257  53.2176  69.6722 0001924  37.9999 322.1129 15.08850418 23658","CENTER_NAME":"EARTH","MEAN_MOTION_DDOT":"0.0000000000000","MEAN_ANOMALY":"322.1129","EPHEMERIS_TYPE":"0","MEAN_MOTION_DOT":"0.00005398","BSTAR":"0.00035690000000","EPOCH":"2022-12-20T12:21:40.538592","RA_OF_ASC_NODE":"69.6722","DECAY_DATE":null},{"SEMIMAJOR_AXIS":"6917.882","REV_AT_EPOCH":"2365","OBJECT_ID":"2022-086S","MEAN_ELEMENT_THEORY":"SGP4","SITE":"AFETR","ARG_OF_PERICENTER":"28.0610","COUNTRY_CODE":"US","RCS_SIZE":"LARGE","PERIOD":"95.438","TLE_LINE1":"1 53258U 22086S   22354.52243305  .00000521  00000-0  50874-4 0  9997","PERIAPSIS":"537.947","INCLINATION":"53.2174","APOAPSIS":"541.547","ECCENTRICITY":"0.00026020","ELEMENT_SET_NO":"999","OBJECT_NAME":"STARLINK-4127","OBJECT_TYPE":"PAYLOAD","CLASSIFICATION_TYPE":"U","DECAY_DATE":null,"RA_OF_ASC_NODE":"69.6555","CENTER_NAME":"EARTH","MEAN_MOTION_DDOT":"0.0000000000000","TLE_LINE2":"2 53258  53.2174  69.6555 0002602  28.0610 332.0522 15.08839604 23657","EPHEMERIS_TYPE":"0","MEAN_MOTION_DOT":"0.00000521","EPOCH":"2022-12-20T12:32:18.215520","BSTAR":"0.00005087400000","MEAN_ANOMALY":"332.0522","REF_FRAME":"TEME","MEAN_MOTION":"15.08839604","NORAD_CAT_ID":"53258","LAUNCH_DATE":"2022-07-24","GP_ID":"221029620","TIME_SYSTEM":"UTC","FILE":"3713130"},{"OBJECT_ID":"2022-086T","REV_AT_EPOCH":"2365","SEMIMAJOR_AXIS":"6917.852","MEAN_ELEMENT_THEORY":"SGP4","SITE":"AFETR","ARG_OF_PERICENTER":"32.0850","PERIOD":"95.437","TLE_LINE1":"1 53259U 22086T   22354.51232497  .00000986  00000-0  80037-4 0  9996","RCS_SIZE":"LARGE","COUNTRY_CODE":"US","APOAPSIS":"541.117","INCLINATION":"53.2176","PERIAPSIS":"538.318","OBJECT_TYPE":"PAYLOAD","OBJECT_NAME":"STARLINK-4140","ELEMENT_SET_NO":"999","ECCENTRICITY":"0.00020230","CLASSIFICATION_TYPE":"U","RA_OF_ASC_NODE":"69.6834","DECAY_DATE":null,"TLE_LINE2":"2 53259  53.2176  69.6834 0002023  32.0850 328.0265 15.08849188 23655","MEAN_MOTION_DDOT":"0.0000000000000","CENTER_NAME":"EARTH","MEAN_ANOMALY":"328.0265","BSTAR":"0.00008003700000","MEAN_MOTION_DOT":"0.00000986","EPOCH":"2022-12-20T12:17:44.877408","EPHEMERIS_TYPE":"0","REF_FRAME":"TEME","MEAN_MOTION":"15.08849188","GP_ID":"221029833","NORAD_CAT_ID":"53259","LAUNCH_DATE":"2022-07-24","TIME_SYSTEM":"UTC","FILE":"3713130"},{"REF_FRAME":"TEME","MEAN_MOTION":"15.08839582","LAUNCH_DATE":"2022-07-24","NORAD_CAT_ID":"53260","GP_ID":"221043195","FILE":"3714090","TIME_SYSTEM":"UTC","DECAY_DATE":null,"RA_OF_ASC_NODE":"68.4738","CENTER_NAME":"EARTH","MEAN_MOTION_DDOT":"0.0000000000000","TLE_LINE2":"2 53260  53.2160  68.4738 0001925  39.4573 320.6559 15.08839582 23519","EPHEMERIS_TYPE":"0","EPOCH":"2022-12-20T18:48:31.342176","MEAN_MOTION_DOT":"0.00000532","BSTAR":"0.00005155400000","MEAN_ANOMALY":"320.6559","PERIAPSIS":"538.415","INCLINATION":"53.2160","APOAPSIS":"541.078","ECCENTRICITY":"0.00019250","ELEMENT_SET_NO":"999","OBJECT_NAME":"STARLINK-4136","OBJECT_TYPE":"PAYLOAD","CLASSIFICATION_TYPE":"U","SEMIMAJOR_AXIS":"6917.882","REV_AT_EPOCH":"2351","OBJECT_ID":"2022-086U","MEAN_ELEMENT_THEORY":"SGP4","SITE":"AFETR","ARG_OF_PERICENTER":"39.4573","COUNTRY_CODE":"US","RCS_SIZE":"LARGE","TLE_LINE1":"1 53260U 22086U   22354.78369609  .00000532  00000-0  51554-4 0  9992","PERIOD":"95.438"},{"PERIAPSIS":"538.407","INCLINATION":"53.2197","APOAPSIS":"540.971","CLASSIFICATION_TYPE":"U","ECCENTRICITY":"0.00018530","ELEMENT_SET_NO":"999","OBJECT_NAME":"STARLINK-4062","OBJECT_TYPE":"PAYLOAD","MEAN_ELEMENT_THEORY":"SGP4","SEMIMAJOR_AXIS":"6917.824","OBJECT_ID":"2022-086V","REV_AT_EPOCH":"2365","COUNTRY_CODE":"US","RCS_SIZE":"LARGE","TLE_LINE1":"1 53261U 22086V   22354.50401485  .00006748  00000-0  44145-3 0  9994","PERIOD":"95.436","SITE":"AFETR","ARG_OF_PERICENTER":"39.5418","MEAN_MOTION":"15.08858565","REF_FRAME":"TEME","FILE":"3713130","TIME_SYSTEM":"UTC","NORAD_CAT_ID":"53261","LAUNCH_DATE":"2022-07-24","GP_ID":"221030260","DECAY_DATE":null,"RA_OF_ASC_NODE":"69.7233","EPHEMERIS_TYPE":"0","MEAN_MOTION_DOT":"0.00006748","EPOCH":"2022-12-20T12:05:46.883040","BSTAR":"0.00044145000000","MEAN_ANOMALY":"320.5709","CENTER_NAME":"EARTH","MEAN_MOTION_DDOT":"0.0000000000000","TLE_LINE2":"2 53261  53.2197  69.7233 0001853  39.5418 320.5709 15.08858565 23656"},{"MEAN_MOTION":"15.08839921","REF_FRAME":"TEME","TIME_SYSTEM":"UTC","FILE":"3713130","GP_ID":"221029194","LAUNCH_DATE":"2022-07-24","NORAD_CAT_ID":"53262","RA_OF_ASC_NODE":"69.6925","DECAY_DATE":null,"MEAN_ANOMALY":"310.5680","EPHEMERIS_TYPE":"0","MEAN_MOTION_DOT":"0.00003196","EPOCH":"2022-12-20T12:16:24.148704","BSTAR":"0.00021879000000","TLE_LINE2":"2 53262  53.2192  69.6925 0001838  49.5472 310.5680 15.08839921 23655","CENTER_NAME":"EARTH","MEAN_MOTION_DDOT":"0.0000000000000","INCLINATION":"53.2192","APOAPSIS":"541.017","PERIAPSIS":"538.474","CLASSIFICATION_TYPE":"U","OBJECT_TYPE":"PAYLOAD","ECCENTRICITY":"0.00018380","ELEMENT_SET_NO":"999","OBJECT_NAME":"STARLINK-4085","MEAN_ELEMENT_THEORY":"SGP4","REV_AT_EPOCH":"2365","OBJECT_ID":"2022-086W","SEMIMAJOR_AXIS":"6917.881","PERIOD":"95.438","TLE_LINE1":"1 53262U 22086W   22354.51139061  .00003196  00000-0  21879-3 0  9997","COUNTRY_CODE":"US","RCS_SIZE":"LARGE","SITE":"AFETR","ARG_OF_PERICENTER":"49.5472"}];
